GAOFEN1
1 39150U 13018A   18094.45034773 -.00000894  00000-0 -12060-3 0  9991
2 39150  97.9286 178.4193 0019002 192.1115 167.9688 14.76504622266226
